NORAD_CAT_ID,OBJECT_NAME,OBJECT_TYPE,EPOCH,MEAN_MOTION,ECCENTRICITY,INCLINATION,RA_OF_ASC_NODE,ARG_OF_PERICENTER,MEAN_ANOMALY,BSTAR,MEAN_MOTION_DOT,MEAN_MOTION_DDOT,TLE_LINE0,TLE_LINE1,TLE_LINE2,SEMIMAJOR_AXIS,PERIOD,APOGEE,PERIGEE,DECAYED
53249.0,STARLINK-4128,PAYLOAD,2023-12-06 03:42:00,15.08858032,0.0001592,53.2186,295.6145,111.7025,248.4137,0.00019317,2.789e-05,0.0,0 STARLINK-4128,1 53249U 22086H   23340.15417350  .00002789  00000-0  19317-3 0  9999,2 53249  53.2186 295.6145 0001592 111.7025 248.4137 15.08858032 76402,6917.825,95.436,540.792,538.589,0.0
53249.0,STARLINK-4128,PAYLOAD,2023-12-06 06:52:46,15.08858201,0.000185,53.2183,295.0194,109.422,250.6973,0.00020709,3.011e-05,0.0,0 STARLINK-4128,1 53249U 22086H   23340.28665230  .00003011  00000-0  20709-3 0  9991,2 53249  53.2183 295.0194 0001850 109.4220 250.6973 15.08858201 76620,6917.825,95.436,540.97,538.41,0.0
53249.0,STARLINK-4128,PAYLOAD,2023-12-07 01:57:24,15.08845043,0.0002598,53.2176,291.4469,133.6039,226.5169,-0.00027722,-4.699e-05,0.0,0 STARLINK-4128,1 53249U 22086H   23341.08153142 -.00004699  00000-0 -27722-3 0  9991,2 53249  53.2176 291.4469 0002598 133.6039 226.5169 15.08845043 76544,6917.865,95.437,541.527,537.933,0.0
53249.0,STARLINK-4128,PAYLOAD,2023-12-07 06:43:34,15.08841964,0.0001817,53.2175,290.5585,111.3985,248.7201,-0.0002246,-3.861e-05,0.0,0 STARLINK-4128,1 53249U 22086H   23341.28025531 -.00003861  00000-0 -22460-3 0  9997,2 53249  53.2175 290.5585 0001817 111.3985 248.7201 15.08841964 76774,6917.874,95.437,540.996,538.482,0.0
53249.0,STARLINK-4128,PAYLOAD,2023-12-08 03:23:35,15.08839473,0.0001686,53.2176,286.693,103.7496,256.3684,3.8795e-05,3.29e-06,0.0,0 STARLINK-4128,1 53249U 22086H   23342.14138023  .00000329  00000-0  38795-4 0  9997,2 53249  53.2176 286.6930 0001686 103.7496 256.3684 15.08839473 76706,6917.882,95.438,540.913,538.581,0.0
53249.0,STARLINK-4128,PAYLOAD,2023-12-09 03:14:22,15.08845566,0.0001527,53.2169,282.2319,96.8673,263.2493,0.00024067,3.545e-05,0.0,0 STARLINK-4128,1 53249U 22086H   23343.13497763  .00003545  00000-0  24067-3 0  9995,2 53249  53.2169 282.2319 0001527  96.8673 263.2493 15.08845566 77058,6917.863,95.437,540.785,538.672,0.0
53249.0,STARLINK-4128,PAYLOAD,2023-12-11 02:55:56,15.08835999,0.000146,53.2172,273.311,94.6408,265.4751,-2.1122e-05,-6.24e-06,0.0,0 STARLINK-4128,1 53249U 22086H   23345.12218307 -.00000624  00000-0 -21122-4 0  9998,2 53249  53.2172 273.3110 0001460  94.6408 265.4751 15.08835999 77151,6917.893,95.438,540.768,538.748,0.0
53249.0,STARLINK-4128,PAYLOAD,2023-12-12 02:46:43,15.088477,0.0001838,53.2183,268.8547,63.4515,296.6666,0.00015623,2.2e-05,0.0,0 STARLINK-4128,1 53249U 22086H   23346.11578191  .00002200  00000-0  15623-3 0  9996,2 53249  53.2183 268.8547 0001838  63.4515 296.6666 15.08847700 77309,6917.857,95.437,540.993,538.45,0.0
53249.0,STARLINK-4128,PAYLOAD,2023-12-13 01:02:07,15.08848346,0.0001586,53.2179,264.6909,75.2704,284.8463,0.00011675,1.571e-05,0.0,0 STARLINK-4128,1 53249U 22086H   23347.04314009  .00001571  00000-0  11675-3 0  9998,2 53249  53.2179 264.6909 0001586  75.2704 284.8463 15.08848346 77447,6917.855,95.437,540.817,538.623,0.0
53249.0,STARLINK-4128,PAYLOAD,2023-12-13 21:42:08,15.08844997,0.0001798,53.2173,260.8281,130.8893,229.2255,-3.4063e-05,-8.3e-06,0.0,0 STARLINK-4128,1 53249U 22086H   23347.90426150 -.00000830  00000-0 -34063-4 0  9990,2 53249  53.2173 260.8281 0001798 130.8893 229.2255 15.08844997 77770,6917.865,95.437,540.974,538.486,0.0
53249.0,STARLINK-4128,PAYLOAD,2023-12-14 00:52:54,15.08843324,0.0001465,53.2173,260.2272,83.7005,276.4154,-2.6658e-05,-7.12e-06,0.0,0 STARLINK-4128,1 53249U 22086H   23348.03674357 -.00000712  00000-0 -26658-4 0  9999,2 53249  53.2173 260.2272 0001465  83.7005 276.4154 15.08843324 77591,6917.87,95.437,540.749,538.722,0.0
53249.0,STARLINK-4128,PAYLOAD,2023-12-14 21:32:55,15.08840367,0.0001609,53.2172,256.3635,111.4333,248.6831,8.4382e-05,1.055e-05,0.0,0 STARLINK-4128,1 53249U 22086H   23348.89786051  .00001055  00000-0  84382-4 0  9995,2 53249  53.2172 256.3635 0001609 111.4333 248.6831 15.08840367 77926,6917.879,95.438,540.857,538.631,0.0
53249.0,STARLINK-4128,PAYLOAD,2023-12-15 00:43:41,15.08844808,0.0001636,53.2177,255.7685,105.7664,254.3508,0.00011617,1.562e-05,0.0,0 STARLINK-4128,1 53249U 22086H   23349.03033737  .00001562  00000-0  11617-3 0  9991,2 53249  53.2177 255.7685 0001636 105.7664 254.3508 15.08844808 77943,6917.866,95.437,540.862,538.599,0.0
53249.0,STARLINK-4128,PAYLOAD,2023-12-15 22:59:06,15.0883399,0.0001763,53.2177,251.6072,122.4443,237.672,3.0161e-05,1.92e-06,0.0,0 STARLINK-4128,1 53249U 22086H   23349.95770869  .00000192  00000-0  30161-4 0  9990,2 53249  53.2177 251.6072 0001763 122.4443 237.6720 15.08833990 78086,6917.899,95.438,540.983,538.544,0.0
53249.0,STARLINK-4128,PAYLOAD,2023-12-16 00:34:29,15.08833334,0.0001564,53.2174,251.3096,115.4121,244.7033,1.7941e-05,-2e-08,0.0,0 STARLINK-4128,1 53249U 22086H   23350.02394987 -.00000002  00000-0  17941-4 0  9995,2 53249  53.2174 251.3096 0001564 115.4121 244.7033 15.08833334 77896,6917.901,95.438,540.848,538.684,0.0
53249.0,STARLINK-4128,PAYLOAD,2023-12-16 21:14:29,15.0884359,0.0001318,53.2171,247.4435,101.3016,258.8124,-9.3963e-06,-4.37e-06,0.0,0 STARLINK-4128,1 53249U 22086H   23350.88506766 -.00000437  00000-0 -93963-5 0  9991,2 53249  53.2171 247.4435 0001318 101.3016 258.8124 15.08843590 78220,6917.869,95.437,540.646,538.823,0.0
53249.0,STARLINK-4128,PAYLOAD,2023-12-16 22:49:52,15.08845168,0.000135,53.217,247.1479,109.2086,250.9053,-7.2615e-06,-4.04e-06,0.0,0 STARLINK-4128,1 53249U 22086H   23350.95130642 -.00000404  00000-0 -72615-5 0  9990,2 53249  53.2170 247.1479 0001350 109.2086 250.9053 15.08845168 78030,6917.865,95.437,540.664,538.796,0.0
53249.0,STARLINK-4128,PAYLOAD,2023-12-17 22:40:39,15.0884867,0.0001271,53.2149,242.6799,81.974,278.1397,0.00022803,3.344e-05,0.0,0 STARLINK-4128,1 53249U 22086H   23351.94490321  .00003344  00000-0  22803-3 0  9999,2 53249  53.2149 242.6799 0001271  81.9740 278.1397 15.08848670 78388,6917.854,95.437,540.598,538.84,0.0
53249.0,STARLINK-4128,PAYLOAD,2023-12-18 00:16:02,15.08852269,0.0001288,53.2153,242.3859,76.7492,283.3644,0.00027408,4.078e-05,0.0,0 STARLINK-4128,1 53249U 22086H   23352.01114200  .00004078  00000-0  27408-3 0  9998,2 53249  53.2153 242.3859 0001288  76.7492 283.3644 15.08852269 78192,6917.843,95.437,540.599,538.817,0.0
53249.0,STARLINK-4128,PAYLOAD,2023-12-18 20:56:04,15.08836466,0.0001682,53.2167,238.522,67.9148,292.2023,1.5992e-06,-2.63e-06,0.0,0 STARLINK-4128,1 53249U 22086H   23352.87227246 -.00000263  00000-0  15992-5 0  9997,2 53249  53.2167 238.5220 0001682  67.9148 292.2023 15.08836466 78522,6917.891,95.438,540.92,538.593,0.0
53249.0,STARLINK-4128,PAYLOAD,2023-12-19 00:06:50,15.08840583,0.0001474,53.2157,237.9283,84.9519,275.1641,8.5903e-05,1.079e-05,0.0,0 STARLINK-4128,1 53249U 22086H   23353.00475015  .00001079  00000-0  85903-4 0  9995,2 53249  53.2157 237.9283 0001474  84.9519 275.1641 15.08840583 78344,6917.879,95.438,540.763,538.724,0.0
53249.0,STARLINK-4128,PAYLOAD,2023-12-19 23:57:37,15.08841216,0.0001866,53.2165,233.4661,71.0789,289.0405,0.00014219,1.976e-05,0.0,0 STARLINK-4128,1 53249U 22086H   23353.99835342  .00001976  00000-0  14219-3 0  9993,2 53249  53.2165 233.4661 0001866  71.0789 289.0405 15.08841216 78699,6917.877,95.437,541.033,538.451,0.0
53249.0,STARLINK-4128,PAYLOAD,2023-12-20 22:13:01,15.08844928,0.0001907,53.2164,229.306,73.077,287.0432,0.00025473,3.769e-05,0.0,0 STARLINK-4128,1 53249U 22086H   23354.92571474  .00003769  00000-0  25473-3 0  9996,2 53249  53.2164 229.3060 0001907  73.0770 287.0432 15.08844928 78830,6917.865,95.437,541.05,538.411,0.0
53249.0,STARLINK-4128,PAYLOAD,2023-12-21 22:03:48,15.08845118,0.000146,53.2152,224.8558,84.9098,275.2061,0.0001397,1.936e-05,0.0,0 STARLINK-4128,1 53249U 22086H   23355.91931316  .00001936  00000-0  13970-3 0  9994,2 53249  53.2152 224.8558 0001460  84.9098 275.2061 15.08845118 78982,6917.865,95.437,540.74,538.72,0.0
53249.0,STARLINK-4128,PAYLOAD,2023-12-22 20:19:12,15.08843343,0.0001469,53.2157,220.6744,92.5762,267.5399,6.9524e-06,-1.77e-06,0.0,0 STARLINK-4128,1 53249U 22086H   23356.84667166 -.00000177  00000-0  69524-5 0  9991,2 53249  53.2157 220.6744 0001469  92.5762 267.5399 15.08843343 78920,6917.87,95.437,540.751,538.719,0.0
53249.0,STARLINK-4128,PAYLOAD,2023-12-22 21:54:35,15.08843264,0.0001487,53.2159,220.3793,91.3499,268.7663,1.45e-05,-5.7e-07,0.0,0 STARLINK-4128,1 53249U 22086H   23356.91291158 -.00000057  00000-0  14500-4 0  9993,2 53249  53.2159 220.3793 0001487  91.3499 268.7663 15.08843264 79130,6917.87,95.437,540.764,538.707,0.0
53249.0,STARLINK-4128,PAYLOAD,2023-12-23 20:09:59,15.08842301,0.0001609,53.2162,216.2256,107.3147,252.8021,8.6955e-05,1.096e-05,0.0,0 STARLINK-4128,1 53249U 22086H   23357.84027280  .00001096  00000-0  86955-4 0  9995,2 53249  53.2162 216.2256 0001609 107.3147 252.8021 15.08842301 79274,6917.873,95.437,540.851,538.625,0.0
53249.0,STARLINK-4128,PAYLOAD,2023-12-24 20:00:46,15.08839059,0.0001694,53.2175,211.7679,114.909,245.2079,9.205e-05,1.177e-05,0.0,0 STARLINK-4128,1 53249U 22086H   23358.83387557  .00001177  00000-0  92050-4 0  9994,2 53249  53.2175 211.7679 0001694 114.9090 245.2079 15.08839059 79222,6917.883,95.438,540.92,538.576,0.0
53249.0,STARLINK-4128,PAYLOAD,2023-12-25 21:26:57,15.08839284,0.0001312,53.2158,207.0039,86.8039,273.3104,4.2359e-05,3.86e-06,0.0,0 STARLINK-4128,1 53249U 22086H   23359.89371848  .00000386  00000-0  42359-4 0  9995,2 53249  53.2158 207.0039 0001312  86.8039 273.3104 15.08839284 79588,6917.883,95.438,540.655,538.84,0.0
53249.0,STARLINK-4128,PAYLOAD,2023-12-26 00:37:43,15.08841361,0.0001377,53.2159,206.4073,98.1369,261.978,4.9469e-05,4.99e-06,0.0,0 STARLINK-4128,1 53249U 22086H   23360.02619602  .00000499  00000-0  49469-4 0  9999,2 53249  53.2159 206.4073 0001377  98.1369 261.9780 15.08841361 79406,6917.876,95.437,540.694,538.789,0.0
